0 COSMOS 2170
1 21784U 91077F   13281.12848897  .00000003  00000-0 -41243-4 0  7910
2 21784 082.6102 335.7789 0001659 027.1095 000.1302 12.62482624  9462
0 COSMOS 2170
1 21784U 91077F   13283.44909009  .00000021  00000-0  55837-4 0  7924
2 21784 082.6099 334.3038 0001567 021.3937 107.5696 12.62482281  9757
0 COSMOS 2170
1 21784U 91077F   13285.50667207  .00000023  00000-0  71492-4 0  7932
2 21784 082.6086 332.9953 0001375 017.5477 098.3274 12.62482279 10013
0 COSMOS 2170
1 21784U 91077F   13287.64605412  .00000029  00000-0  10075-3 0  7945
2 21784 082.6087 331.6359 0001390 013.1958 101.1817 12.62482289 10289
0 COSMOS 2170
1 21784U 91077F   13289.77153222  .00000014  00000-0  21220-4 0  7958
2 21784 082.6083 330.2847 0001318 006.2129 043.5062 12.62482540 10556
0 COSMOS 2170
1 21784U 91077F   13292.07154682 -.00000004  00000-0 -82560-4 0  7962
2 21784 082.6080 328.8221 0001202 001.8198 056.1038 12.62482674 10844
0 COSMOS 2170
1 21784U 91077F   13294.13118560 -.00000002  00000-0 -69533-4 0  7970
2 21784 082.6080 327.5124 0001107 356.3284 057.8537 12.62482598 11107
